start=new Date('2023-02-25T00:00:00.000Z').valueOf();
sats=[{"COUNTRY_CODE":"US","EPOCH":"2023-02-24T21:27:05.077728","SITE":"AFWTR","REF_FRAME":"TEME","MEAN_MOTION_DDOT":"0.0000000000000","TIME_SYSTEM":"UTC","MEAN_ANOMALY":"96.6943","OBJECT_TYPE":"PAYLOAD","CENTER_NAME":"EARTH","OBJECT_ID":"2023-014Q","NORAD_CAT_ID":"55405","CLASSIFICATION_TYPE":"U","DECAY_DATE":null,"MEAN_MOTION":"15.69946964","MEAN_MOTION_DOT":"0.00044720","LAUNCH_DATE":"2023-01-31","INCLINATION":"69.9996","PERIAPSIS":"356.735","RCS_SIZE":"LARGE","MEAN_ELEMENT_THEORY":"SGP4","EPHEMERIS_TYPE":"0","REV_AT_EPOCH":"494","APOAPSIS":"361.366","BSTAR":"0.00037135000000","TLE_LINE2":"2 55405  69.9996  21.6371 0003437 263.3861  96.6943 15.69946964  4948","TLE_LINE1":"1 55405U 23014Q   23055.89380877  .00044720  00000-0  37135-3 0  9993","SEMIMAJOR_AXIS":"6737.186","PERIOD":"91.723","FILE":"3835059","ELEMENT_SET_NO":"999","ARG_OF_PERICENTER":"263.3861","ECCENTRICITY":"0.00034370","GP_ID":"226780317","OBJECT_NAME":"STARLINK-5623","RA_OF_ASC_NODE":"21.6371"},{"SITE":"AFWTR","EPOCH":"2023-02-24T21:27:50.637312","COUNTRY_CODE":"US","TIME_SYSTEM":"UTC","MEAN_MOTION_DDOT":"0.0000000000000","REF_FRAME":"TEME","OBJECT_TYPE":"PAYLOAD","MEAN_ANOMALY":"93.0275","OBJECT_ID":"2023-014R","CENTER_NAME":"EARTH","DECAY_DATE":null,"CLASSIFICATION_TYPE":"U","NORAD_CAT_ID":"55406","APOAPSIS":"361.007","REV_AT_EPOCH":"494","EPHEMERIS_TYPE":"0","RCS_SIZE":"LARGE","MEAN_ELEMENT_THEORY":"SGP4","PERIAPSIS":"357.221","INCLINATION":"69.9994","LAUNCH_DATE":"2023-01-31","MEAN_MOTION_DOT":"0.00008410","MEAN_MOTION":"15.69924948","PERIOD":"91.724","SEMIMAJOR_AXIS":"6737.249","TLE_LINE1":"1 55406U 23014R   23055.89433608  .00008410  00000-0  71641-4 0  9992","BSTAR":"0.00007164100000","TLE_LINE2":"2 55406  69.9994  21.6382 0002810 267.0599  93.0275 15.69924948  4949","RA_OF_ASC_NODE":"21.6382","OBJECT_NAME":"STARLINK-5630","ECCENTRICITY":"0.00028100","GP_ID":"226781067","ELEMENT_SET_NO":"999","ARG_OF_PERICENTER":"267.0599","FILE":"3835059"},{"INCLINATION":"69.9993","PERIAPSIS":"357.460","LAUNCH_DATE":"2023-01-31","MEAN_MOTION_DOT":"0.00039436","MEAN_MOTION":"15.69942136","APOAPSIS":"360.669","EPHEMERIS_TYPE":"0","REV_AT_EPOCH":"494","RCS_SIZE":"LARGE","MEAN_ELEMENT_THEORY":"SGP4","CLASSIFICATION_TYPE":"U","NORAD_CAT_ID":"55407","DECAY_DATE":null,"ARG_OF_PERICENTER":"269.9649","ELEMENT_SET_NO":"999","FILE":"3835059","RA_OF_ASC_NODE":"21.6371","OBJECT_NAME":"STARLINK-5019","GP_ID":"226780817","ECCENTRICITY":"0.00023810","TLE_LINE2":"2 55407  69.9993  21.6371 0002381 269.9649  90.1274 15.69942136  4943","BSTAR":"0.00032800000000","PERIOD":"91.723","SEMIMAJOR_AXIS":"6737.200","TLE_LINE1":"1 55407U 23014S   23055.89402219  .00039436  00000-0  32800-3 0  9992","TIME_SYSTEM":"UTC","REF_FRAME":"TEME","MEAN_MOTION_DDOT":"0.0000000000000","EPOCH":"2023-02-24T21:27:23.517216","COUNTRY_CODE":"US","SITE":"AFWTR","OBJECT_ID":"2023-014S","CENTER_NAME":"EARTH","OBJECT_TYPE":"PAYLOAD","MEAN_ANOMALY":"90.1274"},{"DECAY_DATE":null,"CLASSIFICATION_TYPE":"U","NORAD_CAT_ID":"55408","MEAN_ELEMENT_THEORY":"SGP4","RCS_SIZE":"LARGE","APOAPSIS":"361.287","EPHEMERIS_TYPE":"0","REV_AT_EPOCH":"390","MEAN_MOTION_DOT":"0.00053566","MEAN_MOTION":"15.69939243","INCLINATION":"69.9995","PERIAPSIS":"356.858","LAUNCH_DATE":"2023-01-31","SEMIMAJOR_AXIS":"6737.208","TLE_LINE1":"1 55408U 23014T   23055.25727111  .00053566  00000-0  44414-3 0  9998","PERIOD":"91.723","BSTAR":"0.00044414000000","TLE_LINE2":"2 55408  69.9995  23.4300 0003287 268.7893  91.2926 15.69939243  3908","OBJECT_NAME":"STARLINK-5092","ECCENTRICITY":"0.00032870","GP_ID":"226728543","RA_OF_ASC_NODE":"23.4300","FILE":"3833818","ELEMENT_SET_NO":"999","ARG_OF_PERICENTER":"268.7893","SITE":"AFWTR","EPOCH":"2023-02-24T06:10:28.223904","COUNTRY_CODE":"US","MEAN_MOTION_DDOT":"0.0000000000000","REF_FRAME":"TEME","TIME_SYSTEM":"UTC","MEAN_ANOMALY":"91.2926","OBJECT_TYPE":"PAYLOAD","CENTER_NAME":"EARTH","OBJECT_ID":"2023-014T"},{"CENTER_NAME":"EARTH","OBJECT_ID":"2023-014U","MEAN_ANOMALY":"90.3576","OBJECT_TYPE":"PAYLOAD","MEAN_MOTION_DDOT":"0.0000000000000","REF_FRAME":"TEME","TIME_SYSTEM":"UTC","SITE":"AFWTR","EPOCH":"2023-02-24T21:27:41.675040","COUNTRY_CODE":"US","OBJECT_NAME":"STARLINK-5047","ECCENTRICITY":"0.00027160","GP_ID":"226779818","RA_OF_ASC_NODE":"21.6386","FILE":"3835059","ELEMENT_SET_NO":"999","ARG_OF_PERICENTER":"269.7309","SEMIMAJOR_AXIS":"6737.249","TLE_LINE1":"1 55409U 23014U   23055.89423235  .00005843  00000-0  50326-4 0  9994","PERIOD":"91.724","BSTAR":"0.00005032600000","TLE_LINE2":"2 55409  69.9999  21.6386 0002716 269.7309  90.3576 15.69924996  4941","RCS_SIZE":"LARGE","MEAN_ELEMENT_THEORY":"SGP4","APOAPSIS":"360.943","EPHEMERIS_TYPE":"0","REV_AT_EPOCH":"494","MEAN_MOTION_DOT":"0.00005843","MEAN_MOTION":"15.69924996","PERIAPSIS":"357.284","INCLINATION":"69.9999","LAUNCH_DATE":"2023-01-31","DECAY_DATE":null,"CLASSIFICATION_TYPE":"U","NORAD_CAT_ID":"55409"},{"DECAY_DATE":null,"NORAD_CAT_ID":"55410","CLASSIFICATION_TYPE":"U","MEAN_ELEMENT_THEORY":"SGP4","RCS_SIZE":"LARGE","REV_AT_EPOCH":"494","EPHEMERIS_TYPE":"0","APOAPSIS":"361.306","MEAN_MOTION":"15.69922753","MEAN_MOTION_DOT":"0.00036815","LAUNCH_DATE":"2023-01-31","INCLINATION":"70.0004","PERIAPSIS":"356.934","TLE_LINE1":"1 55410U 23014V   23055.89486649  .00036815  00000-0  30662-3 0  9997","SEMIMAJOR_AXIS":"6737.255","PERIOD":"91.724","BSTAR":"0.00030662000000","TLE_LINE2":"2 55410  70.0004  21.6400 0003245 282.3025  77.7808 15.69922753  4940","ECCENTRICITY":"0.00032450","GP_ID":"226780568","OBJECT_NAME":"STARLINK-5633","RA_OF_ASC_NODE":"21.6400","FILE":"3835059","ELEMENT_SET_NO":"999","ARG_OF_PERICENTER":"282.3025","SITE":"AFWTR","COUNTRY_CODE":"US","EPOCH":"2023-02-24T21:28:36.464736","MEAN_MOTION_DDOT":"0.0000000000000","REF_FRAME":"TEME","TIME_SYSTEM":"UTC","MEAN_ANOMALY":"77.7808","OBJECT_TYPE":"PAYLOAD","CENTER_NAME":"EARTH","OBJECT_ID":"2023-014V"},{"DECAY_DATE":null,"NORAD_CAT_ID":"55411","CLASSIFICATION_TYPE":"U","MEAN_ELEMENT_THEORY":"SGP4","RCS_SIZE":"LARGE","EPHEMERIS_TYPE":"0","REV_AT_EPOCH":"494","APOAPSIS":"361.435","MEAN_MOTION":"15.69920272","MEAN_MOTION_DOT":"0.00063407","LAUNCH_DATE":"2023-01-31","INCLINATION":"69.9992","PERIAPSIS":"356.819","TLE_LINE1":"1 55411U 23014W   23055.89454892  .00063407  00000-0  52520-3 0  9997","SEMIMAJOR_AXIS":"6737.262","PERIOD":"91.724","TLE_LINE2":"2 55411  69.9992  21.6392 0003426 261.8548  98.2260 15.69920272  4941","BSTAR":"0.00052520000000","GP_ID":"226781317","ECCENTRICITY":"0.00034260","OBJECT_NAME":"STARLINK-5605","RA_OF_ASC_NODE":"21.6392","FILE":"3835059","ELEMENT_SET_NO":"999","ARG_OF_PERICENTER":"261.8548","SITE":"AFWTR","COUNTRY_CODE":"US","EPOCH":"2023-02-24T21:28:09.026688","REF_FRAME":"TEME","MEAN_MOTION_DDOT":"0.0000000000000","TIME_SYSTEM":"UTC","MEAN_ANOMALY":"98.2260","OBJECT_TYPE":"PAYLOAD","CENTER_NAME":"EARTH","OBJECT_ID":"2023-014W"},{"OBJECT_ID":"2023-014X","CENTER_NAME":"EARTH","OBJECT_TYPE":"PAYLOAD","MEAN_ANOMALY":"87.7970","TIME_SYSTEM":"UTC","REF_FRAME":"TEME","MEAN_MOTION_DDOT":"0.0000000000000","SITE":"AFWTR","COUNTRY_CODE":"US","EPOCH":"2023-02-24T07:42:58.600512","RA_OF_ASC_NODE":"23.2527","ECCENTRICITY":"0.00037760","GP_ID":"226728563","OBJECT_NAME":"STARLINK-5033","ELEMENT_SET_NO":"999","ARG_OF_PERICENTER":"272.2793","FILE":"3833819","PERIOD":"91.723","TLE_LINE1":"1 55412U 23014X   23055.32151158  .00045861  00000-0  38087-3 0  9991","SEMIMAJOR_AXIS":"6737.216","BSTAR":"0.00038087000000","TLE_LINE2":"2 55412  69.9993  23.2527 0003776 272.2793  87.7970 15.69936321  3916","EPHEMERIS_TYPE":"0","REV_AT_EPOCH":"391","APOAPSIS":"361.625","RCS_SIZE":"LARGE","MEAN_ELEMENT_THEORY":"SGP4","LAUNCH_DATE":"2023-01-31","INCLINATION":"69.9993","PERIAPSIS":"356.537","MEAN_MOTION":"15.69936321","MEAN_MOTION_DOT":"0.00045861","DECAY_DATE":null,"NORAD_CAT_ID":"55412","CLASSIFICATION_TYPE":"U"},{"BSTAR":"0.00022503000000","TLE_LINE2":"2 55413  69.9996  23.2513 0003781 271.5439  88.5324 15.69944154  4859","PERIOD":"91.723","SEMIMAJOR_AXIS":"6737.194","TLE_LINE1":"1 55413U 23014Y   23055.32119534  .00026957  00000-0  22503-3 0  9995","ELEMENT_SET_NO":"999","ARG_OF_PERICENTER":"271.5439","FILE":"3832867","RA_OF_ASC_NODE":"23.2513","OBJECT_NAME":"STARLINK-5060","ECCENTRICITY":"0.00037810","GP_ID":"226709406","CLASSIFICATION_TYPE":"U","NORAD_CAT_ID":"55413","DECAY_DATE":null,"PERIAPSIS":"356.511","INCLINATION":"69.9996","LAUNCH_DATE":"2023-01-31","MEAN_MOTION_DOT":"0.00026957","MEAN_MOTION":"15.69944154","APOAPSIS":"361.606","REV_AT_EPOCH":"485","EPHEMERIS_TYPE":"0","RCS_SIZE":"LARGE","MEAN_ELEMENT_THEORY":"SGP4","OBJECT_TYPE":"PAYLOAD","MEAN_ANOMALY":"88.5324","OBJECT_ID":"2023-014Y","CENTER_NAME":"EARTH","EPOCH":"2023-02-24T07:42:31.277376","COUNTRY_CODE":"US","SITE":"AFWTR","TIME_SYSTEM":"UTC","REF_FRAME":"TEME","MEAN_MOTION_DDOT":"0.0000000000000"},{"CLASSIFICATION_TYPE":"U","NORAD_CAT_ID":"55414","DECAY_DATE":null,"MEAN_MOTION_DOT":"0.00065876","MEAN_MOTION":"15.69951561","PERIAPSIS":"356.657","INCLINATION":"69.9996","LAUNCH_DATE":"2023-01-31","MEAN_ELEMENT_THEORY":"SGP4","RCS_SIZE":"LARGE","APOAPSIS":"361.418","EPHEMERIS_TYPE":"0","REV_AT_EPOCH":"485","TLE_LINE2":"2 55414  69.9996  23.2528 0003533 272.3946  87.6845 15.69951561  4851","BSTAR":"0.00054470000000","SEMIMAJOR_AXIS":"6737.173","TLE_LINE1":"1 55414U 23014Z   23055.32172504  .00065876  00000-0  54470-3 0  9993","PERIOD":"91.723","FILE":"3833819","ELEMENT_SET_NO":"999","ARG_OF_PERICENTER":"272.3946","OBJECT_NAME":"STARLINK-5620","ECCENTRICITY":"0.00035330","GP_ID":"226728559","RA_OF_ASC_NODE":"23.2528","EPOCH":"2023-02-24T07:43:17.043456","COUNTRY_CODE":"US","SITE":"AFWTR","MEAN_MOTION_DDOT":"0.0000000000000","REF_FRAME":"TEME","TIME_SYSTEM":"UTC","MEAN_ANOMALY":"87.6845","OBJECT_TYPE":"PAYLOAD","CENTER_NAME":"EARTH","OBJECT_ID":"2023-014Z"}];
